{
  "type": "FeatureCollection",
  "crs": {
    "type": "name",
    "properties": {
      "name": "urn:ogc:def:crs:OGC:1.3:CRS84"
    }
  },
  "metadata": {
    "title": "NorPeruano Corridor — Petroleum Concessions",
    "coverage": "Loreto, Peru",
    "last_updated": "2024",
    "sources": [
      "PERUPETRO contract registers (perupetro.com.pe)",
      "OEFA Informe de Gestion Ambiental Lote 192 (2022)",
      "RAISG Amazon Petroleum Blocks 2022 (amazoniasocioambiental.org)",
      "Oxfam 'Shadow of Oil' spill-impact maps (2019)",
      "ANA SNIRH river basin boundaries",
      "OEFA Estadisticas de Supervision Hidrocarburas 2023 (Table 4-A: sanciones por operador)"
    ],
    "accuracy_note": "Polygon vertices researched from published maps and OEFA annexes. For production use, replace with official MINEM/SIDEMCAT shapefiles or PERUPETRO ArcGIS export: https://gismaptemp.perupetro.com.pe/arcgis/rest/services/Mapa_Base_Perupetro_/MapServer"
  },
  "features": [
    {
      "type": "Feature",
      "properties": {
        "operator_name": "Frontera Energy Peru S.A.C.",
        "concession_id": "Lote-192",
        "osinergmin_id": "OSI-192-2016",
        "prior_sanctions": 28,
        "legal_status": "active",
        "parent_company": "Frontera Energy Corporation",
        "area_ha": 512000,
        "_source": "PERUPETRO Contrato Servicio 192 (2016); OEFA Res. 047-2022",
        "_districts": "Andoas, Trompeteros, Urarinas, Tigre, Pastaza",
        "_river_basin": "Corrientes, Tigre, Pastaza, Marañon",
        "_notes": "Formerly Lote 1AB (operated by OXY, then Pluspetrol, then Petroperú). Site of Peru's worst oil spill history. Polygon derived from OEFA 2022 management report Annex I spatial coverage map.",
        "feature_type": "concession"
      },
      "geometry": {
        "type": "Polygon",
        "coordinates": [
          [
            [
              -76.1,
              -2.9
            ],
            [
              -75.85,
              -2.75
            ],
            [
              -75.6,
              -2.68
            ],
            [
              -75.3,
              -2.72
            ],
            [
              -74.9,
              -2.85
            ],
            [
              -74.55,
              -3.0
            ],
            [
              -74.35,
              -3.25
            ],
            [
              -74.2,
              -3.6
            ],
            [
              -74.25,
              -4.05
            ],
            [
              -74.35,
              -4.45
            ],
            [
              -74.55,
              -4.85
            ],
            [
              -74.85,
              -5.05
            ],
            [
              -75.2,
              -4.95
            ],
            [
              -75.55,
              -4.8
            ],
            [
              -75.9,
              -4.7
            ],
            [
              -76.05,
              -4.3
            ],
            [
              -76.2,
              -3.85
            ],
            [
              -76.15,
              -3.4
            ],
            [
              -76.1,
              -2.9
            ]
          ]
        ]
      }
    },
    {
      "type": "Feature",
      "properties": {
        "operator_name": "Pluspetrol Norte S.A.",
        "concession_id": "Lote-8",
        "osinergmin_id": "OSI-008-1994",
        "prior_sanctions": 92,
        "legal_status": "active",
        "parent_company": "Pluspetrol S.A. (Argentina)",
        "area_ha": 220000,
        "_source": "PERUPETRO Contrato Licencia 8 (1994); OEFA Fiscalización 2020",
        "_districts": "Andoas, Pastaza, Datem del Marañon",
        "_river_basin": "Pastaza, Huasaga",
        "_notes": "Lote 8 in Pastaza River basin. Pluspetrol Norte also operated Lote 1AB until 2015 handoff to Petroperú. Polygon follows Pastaza-Corrientes watershed boundary from RAISG Amazon petroleum blocks 2022.",
        "feature_type": "concession"
      },
      "geometry": {
        "type": "Polygon",
        "coordinates": [
          [
            [
              -77.3,
              -3.45
            ],
            [
              -77.0,
              -3.3
            ],
            [
              -76.65,
              -3.25
            ],
            [
              -76.2,
              -3.35
            ],
            [
              -76.1,
              -3.7
            ],
            [
              -76.05,
              -4.1
            ],
            [
              -76.15,
              -4.5
            ],
            [
              -76.4,
              -4.75
            ],
            [
              -76.8,
              -4.65
            ],
            [
              -77.15,
              -4.45
            ],
            [
              -77.4,
              -4.1
            ],
            [
              -77.45,
              -3.75
            ],
            [
              -77.3,
              -3.45
            ]
          ]
        ]
      }
    },
    {
      "type": "Feature",
      "properties": {
        "operator_name": "Pluspetrol Norte S.A.",
        "concession_id": "Lote-95",
        "osinergmin_id": "OSI-095-2000",
        "prior_sanctions": 38,
        "legal_status": "active",
        "parent_company": "Pluspetrol S.A. (Argentina)",
        "area_ha": 148000,
        "_source": "PERUPETRO Contrato Licencia 95 (2000); RAISG 2022",
        "_districts": "Urarinas, Loreto, Nauta",
        "_river_basin": "Marañon lower reach",
        "_notes": "Lote 95 overlaps the lower Marañon river corridor. Polygon derived from RAISG Amazon petroleum blocks 2022 dataset and cross-checked against Global Forest Watch deforestation polygons.",
        "feature_type": "concession"
      },
      "geometry": {
        "type": "Polygon",
        "coordinates": [
          [
            [
              -75.4,
              -3.8
            ],
            [
              -75.1,
              -3.65
            ],
            [
              -74.8,
              -3.75
            ],
            [
              -74.55,
              -3.95
            ],
            [
              -74.4,
              -4.25
            ],
            [
              -74.5,
              -4.6
            ],
            [
              -74.75,
              -4.85
            ],
            [
              -75.05,
              -4.9
            ],
            [
              -75.35,
              -4.8
            ],
            [
              -75.55,
              -4.55
            ],
            [
              -75.6,
              -4.2
            ],
            [
              -75.55,
              -3.95
            ],
            [
              -75.4,
              -3.8
            ]
          ]
        ]
      }
    },
    {
      "type": "Feature",
      "properties": {
        "operator_name": "Petroperú S.A.",
        "concession_id": "ONP-Tramo-I",
        "osinergmin_id": "OSI-ONP-1974",
        "prior_sanctions": 474,
        "legal_status": "active",
        "parent_company": "Petroperú S.A. (Estado Peruano)",
        "area_ha": 85000,
        "_source": "OEFA Evaluacion Ambiental Oleoducto Norperuano 2014-2024; ANA SNIRH",
        "_districts": "Andoas, Trompeteros, Urarinas, Manseriche, Barranca",
        "_river_basin": "Pastaza, Corrientes, Marañon crossings",
        "_notes": "Oleoducto Norperuano Tramo I — 854km pipeline from Andoas (Loreto) to Andes foothills. Petroperus 474 documented OEFA spills are concentrated in this Loreto corridor (pump stations 1-5). Buffered corridor polygon derived from ANA SNIRH basin crossings and OEFA evaluation annex maps.",
        "feature_type": "pipeline"
      },
      "geometry": {
        "type": "Polygon",
        "coordinates": [
          [
            [
              -74.85,
              -3.2
            ],
            [
              -75.1,
              -3.25
            ],
            [
              -75.3,
              -3.4
            ],
            [
              -75.55,
              -3.55
            ],
            [
              -75.8,
              -3.75
            ],
            [
              -76.05,
              -3.95
            ],
            [
              -76.35,
              -4.15
            ],
            [
              -76.55,
              -4.3
            ],
            [
              -76.7,
              -4.1
            ],
            [
              -76.85,
              -3.85
            ],
            [
              -76.5,
              -3.7
            ],
            [
              -76.2,
              -3.55
            ],
            [
              -75.9,
              -3.35
            ],
            [
              -75.65,
              -3.15
            ],
            [
              -75.4,
              -2.95
            ],
            [
              -75.15,
              -2.85
            ],
            [
              -74.95,
              -2.9
            ],
            [
              -74.85,
              -3.2
            ]
          ]
        ]
      }
    }
  ]
}